STARLINK-4452           
1 53658U 22105L   25317.26212430 -.00006835  00000+0 -47030-3 0  9995
2 53658  97.6004 196.5122 0002993  84.8048 275.3520 15.05619736175781
STARLINK-4463           
1 53659U 22105M   25317.23165591 -.00005049  00000+0 -34601-3 0  9994
2 53659  97.5960 196.4040 0002405  60.5340 299.6126 15.05640800175770
STARLINK-4473           
1 53660U 22105N   25317.24772444 -.00001808  00000+0 -13629-3 0  9994
2 53660  97.6016 196.2095 0001777  91.8225 268.3203 15.01247832175765
STARLINK-4472           
1 53661U 22105P   25317.24981641 -.00000894  00000+0 -65128-4 0  9992
2 53661  97.6024 196.2156 0001275  94.5373 265.5997 15.01253499175765
STARLINK-4357           
1 53662U 22105Q   25317.23441538 -.00004489  00000+0 -30718-3 0  9998
2 53662  97.6003 196.3649 0001739  89.7996 270.3430 15.05640842175776
STARLINK-4457           
1 53663U 22105R   25317.25936800 -.00002090  00000+0 -14077-3 0  9998
2 53663  97.5997 196.5067 0003060  89.3790 270.7787 15.05627727175788
STARLINK-4471           
1 53664U 22105S   25317.22333824 -.00004344  00000+0 -29720-3 0  9998
2 53664  97.5992 196.3811 0001410 135.9436 224.1903 15.05631115175779
STARLINK-4334           
1 53665U 22105T   25317.25660198 -.00003415  00000+0 -23276-3 0  9997
2 53665  97.6004 196.5038 0002595  87.3570 272.7954 15.05621077175784
STARLINK-4406           
1 53667U 22105V   25317.23999312 -.00003454  00000+0 -23547-3 0  9994
2 53667  97.6006 196.5249 0002044  92.2154 267.9307 15.05618164175785
STARLINK-4458           
1 53668U 22105W   25317.21227294  .00000403  00000+0  32139-4 0  9993
2 53668  97.5928 196.3614 0002958  70.3088 289.8458 15.05642036175773
STARLINK-4464           
1 53669U 22105X   25317.24401000 -.00002616  00000+0 -19925-3 0  9993
2 53669  97.6025 196.1960 0000807 239.1945 120.9200 15.01251193175768
STARLINK-4459           
1 53670U 22105Y   25317.24829277 -.00002842  00000+0 -19293-3 0  9994
2 53670  97.6002 196.4876 0002607  91.6165 268.5360 15.05622234175789
STARLINK-4440           
1 53671U 22105Z   25317.23500864 -.00009513  00000+0 -73702-3 0  9999
2 53671  97.6018 196.2000 0001327  52.7856 307.3489 15.01264436175761
STARLINK-4428           
1 53672U 22105AA  25317.22181349 -.00001696  00000+0 -12749-3 0  9990
2 53672  97.5992 196.2139 0004547  69.5088 290.6624 15.01253595175764
STARLINK-4456           
1 53673U 22105AB  25317.21782571 -.00001166  00000+0 -76580-4 0  9990
2 53673  97.5991 196.4324 0003998  77.5283 282.6391 15.05638450175771
STARLINK-4620           
1 53674U 22105AC  25317.22921896 -.00001127  00000+0 -83208-4 0  9999
2 53674  97.6054 196.1894 0001612  84.5769 275.5640 15.01249697175764
