[{"OBJECT_NAME":"STARLINK-4452","OBJECT_ID":"2022-105L","EPOCH":"2025-11-13T06:17:27.539520","MEAN_MOTION":15.05619736,"ECCENTRICITY":0.00029938,"INCLINATION":97.6004,"RA_OF_ASC_NODE":196.5122,"ARG_OF_PERICENTER":84.8048,"MEAN_ANOMALY":275.352,"EPHEMERIS_TYPE":0,"CLASSIFICATION_TYPE":"U","NORAD_CAT_ID":53658,"ELEMENT_SET_NO":999,"REV_AT_EPOCH":17578,"BSTAR":-0.00047029789,"MEAN_MOTION_DOT":-6.835e-5,"MEAN_MOTION_DDOT":0},{"OBJECT_NAME":"STARLINK-4463","OBJECT_ID":"2022-105M","EPOCH":"2025-11-13T05:33:35.070624","MEAN_MOTION":15.056408,"ECCENTRICITY":0.0002405,"INCLINATION":97.596,"RA_OF_ASC_NODE":196.404,"ARG_OF_PERICENTER":60.534,"MEAN_ANOMALY":299.6126,"EPHEMERIS_TYPE":0,"CLASSIFICATION_TYPE":"U","NORAD_CAT_ID":53659,"ELEMENT_SET_NO":999,"REV_AT_EPOCH":17577,"BSTAR":-0.00034600929,"MEAN_MOTION_DOT":-5.049e-5,"MEAN_MOTION_DDOT":0},{"OBJECT_NAME":"STARLINK-4473","OBJECT_ID":"2022-105N","EPOCH":"2025-11-13T05:56:43.391616","MEAN_MOTION":15.01247832,"ECCENTRICITY":0.00017778,"INCLINATION":97.6016,"RA_OF_ASC_NODE":196.2095,"ARG_OF_PERICENTER":91.8225,"MEAN_ANOMALY":268.3203,"EPHEMERIS_TYPE":0,"CLASSIFICATION_TYPE":"U","NORAD_CAT_ID":53660,"ELEMENT_SET_NO":999,"REV_AT_EPOCH":17576,"BSTAR":-0.00013629287,"MEAN_MOTION_DOT":-1.808e-5,"MEAN_MOTION_DDOT":0},{"OBJECT_NAME":"STARLINK-4472","OBJECT_ID":"2022-105P","EPOCH":"2025-11-13T05:59:44.137824","MEAN_MOTION":15.01253499,"ECCENTRICITY":0.00012753,"INCLINATION":97.6024,"RA_OF_ASC_NODE":196.2156,"ARG_OF_PERICENTER":94.5373,"MEAN_ANOMALY":265.5997,"EPHEMERIS_TYPE":0,"CLASSIFICATION_TYPE":"U","NORAD_CAT_ID":53661,"ELEMENT_SET_NO":999,"REV_AT_EPOCH":17576,"BSTAR":-6.5127697e-5,"MEAN_MOTION_DOT":-8.94e-6,"MEAN_MOTION_DDOT":0},{"OBJECT_NAME":"STARLINK-4357","OBJECT_ID":"2022-105Q","EPOCH":"2025-11-13T05:37:33.488832","MEAN_MOTION":15.05640842,"ECCENTRICITY":0.0001739,"INCLINATION":97.6003,"RA_OF_ASC_NODE":196.3649,"ARG_OF_PERICENTER":89.7996,"MEAN_ANOMALY":270.343,"EPHEMERIS_TYPE":0,"CLASSIFICATION_TYPE":"U","NORAD_CAT_ID":53662,"ELEMENT_SET_NO":999,"REV_AT_EPOCH":17577,"BSTAR":-0.00030718426,"MEAN_MOTION_DOT":-4.489e-5,"MEAN_MOTION_DDOT":0},{"OBJECT_NAME":"STARLINK-4457","OBJECT_ID":"2022-105R","EPOCH":"2025-11-13T06:13:29.395200","MEAN_MOTION":15.05627727,"ECCENTRICITY":0.000306,"INCLINATION":97.5997,"RA_OF_ASC_NODE":196.5067,"ARG_OF_PERICENTER":89.379,"MEAN_ANOMALY":270.7787,"EPHEMERIS_TYPE":0,"CLASSIFICATION_TYPE":"U","NORAD_CAT_ID":53663,"ELEMENT_SET_NO":999,"REV_AT_EPOCH":17578,"BSTAR":-0.00014076972,"MEAN_MOTION_DOT":-2.09e-5,"MEAN_MOTION_DDOT":0},{"OBJECT_NAME":"STARLINK-4471","OBJECT_ID":"2022-105S","EPOCH":"2025-11-13T05:21:36.423936","MEAN_MOTION":15.05631115,"ECCENTRICITY":0.00014106,"INCLINATION":97.5992,"RA_OF_ASC_NODE":196.3811,"ARG_OF_PERICENTER":135.9436,"MEAN_ANOMALY":224.1903,"EPHEMERIS_TYPE":0,"CLASSIFICATION_TYPE":"U","NORAD_CAT_ID":53664,"ELEMENT_SET_NO":999,"REV_AT_EPOCH":17577,"BSTAR":-0.00029720189,"MEAN_MOTION_DOT":-4.344e-5,"MEAN_MOTION_DDOT":0},{"OBJECT_NAME":"STARLINK-4334","OBJECT_ID":"2022-105T","EPOCH":"2025-11-13T06:09:30.411072","MEAN_MOTION":15.05621077,"ECCENTRICITY":0.00025952,"INCLINATION":97.6004,"RA_OF_ASC_NODE":196.5038,"ARG_OF_PERICENTER":87.357,"MEAN_ANOMALY":272.7954,"EPHEMERIS_TYPE":0,"CLASSIFICATION_TYPE":"U","NORAD_CAT_ID":53665,"ELEMENT_SET_NO":999,"REV_AT_EPOCH":17578,"BSTAR":-0.00023276187,"MEAN_MOTION_DOT":-3.415e-5,"MEAN_MOTION_DDOT":0},{"OBJECT_NAME":"STARLINK-4406","OBJECT_ID":"2022-105V","EPOCH":"2025-11-13T05:45:35.405568","MEAN_MOTION":15.05618164,"ECCENTRICITY":0.00020444,"INCLINATION":97.6006,"RA_OF_ASC_NODE":196.5249,"ARG_OF_PERICENTER":92.2154,"MEAN_ANOMALY":267.9307,"EPHEMERIS_TYPE":0,"CLASSIFICATION_TYPE":"U","NORAD_CAT_ID":53667,"ELEMENT_SET_NO":999,"REV_AT_EPOCH":17578,"BSTAR":-0.00023546852,"MEAN_MOTION_DOT":-3.454e-5,"MEAN_MOTION_DDOT":0},{"OBJECT_NAME":"STARLINK-4458","OBJECT_ID":"2022-105W","EPOCH":"2025-11-13T05:05:40.382016","MEAN_MOTION":15.05642036,"ECCENTRICITY":0.00029587,"INCLINATION":97.5928,"RA_OF_ASC_NODE":196.3614,"ARG_OF_PERICENTER":70.3088,"MEAN_ANOMALY":289.8458,"EPHEMERIS_TYPE":0,"CLASSIFICATION_TYPE":"U","NORAD_CAT_ID":53668,"ELEMENT_SET_NO":999,"REV_AT_EPOCH":17577,"BSTAR":3.2139115e-5,"MEAN_MOTION_DOT":4.03e-6,"MEAN_MOTION_DDOT":0},{"OBJECT_NAME":"STARLINK-4464","OBJECT_ID":"2022-105X","EPOCH":"2025-11-13T05:51:22.464000","MEAN_MOTION":15.01251193,"ECCENTRICITY":8.073e-5,"INCLINATION":97.6025,"RA_OF_ASC_NODE":196.196,"ARG_OF_PERICENTER":239.1945,"MEAN_ANOMALY":120.92,"EPHEMERIS_TYPE":0,"CLASSIFICATION_TYPE":"U","NORAD_CAT_ID":53669,"ELEMENT_SET_NO":999,"REV_AT_EPOCH":17576,"BSTAR":-0.00019924717,"MEAN_MOTION_DOT":-2.616e-5,"MEAN_MOTION_DDOT":0},{"OBJECT_NAME":"STARLINK-4459","OBJECT_ID":"2022-105Y","EPOCH":"2025-11-13T05:57:32.495328","MEAN_MOTION":15.05622234,"ECCENTRICITY":0.00026078,"INCLINATION":97.6002,"RA_OF_ASC_NODE":196.4876,"ARG_OF_PERICENTER":91.6165,"MEAN_ANOMALY":268.536,"EPHEMERIS_TYPE":0,"CLASSIFICATION_TYPE":"U","NORAD_CAT_ID":53670,"ELEMENT_SET_NO":999,"REV_AT_EPOCH":17578,"BSTAR":-0.00019293183,"MEAN_MOTION_DOT":-2.842e-5,"MEAN_MOTION_DDOT":0},{"OBJECT_NAME":"STARLINK-4440","OBJECT_ID":"2022-105Z","EPOCH":"2025-11-13T05:38:24.746496","MEAN_MOTION":15.01264436,"ECCENTRICITY":0.00013278,"INCLINATION":97.6018,"RA_OF_ASC_NODE":196.2,"ARG_OF_PERICENTER":52.7856,"MEAN_ANOMALY":307.3489,"EPHEMERIS_TYPE":0,"CLASSIFICATION_TYPE":"U","NORAD_CAT_ID":53671,"ELEMENT_SET_NO":999,"REV_AT_EPOCH":17576,"BSTAR":-0.00073701623,"MEAN_MOTION_DOT":-9.513e-5,"MEAN_MOTION_DDOT":0},{"OBJECT_NAME":"STARLINK-4428","OBJECT_ID":"2022-105AA","EPOCH":"2025-11-13T05:19:24.685536","MEAN_MOTION":15.01253595,"ECCENTRICITY":0.00045477,"INCLINATION":97.5992,"RA_OF_ASC_NODE":196.2139,"ARG_OF_PERICENTER":69.5088,"MEAN_ANOMALY":290.6624,"EPHEMERIS_TYPE":0,"CLASSIFICATION_TYPE":"U","NORAD_CAT_ID":53672,"ELEMENT_SET_NO":999,"REV_AT_EPOCH":17576,"BSTAR":-0.00012749143,"MEAN_MOTION_DOT":-1.696e-5,"MEAN_MOTION_DDOT":0},{"OBJECT_NAME":"STARLINK-4456","OBJECT_ID":"2022-105AB","EPOCH":"2025-11-13T05:13:40.141344","MEAN_MOTION":15.0563845,"ECCENTRICITY":0.00039987,"INCLINATION":97.5991,"RA_OF_ASC_NODE":196.4324,"ARG_OF_PERICENTER":77.5283,"MEAN_ANOMALY":282.6391,"EPHEMERIS_TYPE":0,"CLASSIFICATION_TYPE":"U","NORAD_CAT_ID":53673,"ELEMENT_SET_NO":999,"REV_AT_EPOCH":17577,"BSTAR":-7.6579565e-5,"MEAN_MOTION_DOT":-1.166e-5,"MEAN_MOTION_DDOT":0},{"OBJECT_NAME":"STARLINK-4620","OBJECT_ID":"2022-105AC","EPOCH":"2025-11-13T05:30:04.518144","MEAN_MOTION":15.01249697,"ECCENTRICITY":0.00016129,"INCLINATION":97.6054,"RA_OF_ASC_NODE":196.1894,"ARG_OF_PERICENTER":84.5769,"MEAN_ANOMALY":275.564,"EPHEMERIS_TYPE":0,"CLASSIFICATION_TYPE":"U","NORAD_CAT_ID":53674,"ELEMENT_SET_NO":999,"REV_AT_EPOCH":17576,"BSTAR":-8.3207908e-5,"MEAN_MOTION_DOT":-1.127e-5,"MEAN_MOTION_DDOT":0}]
